{
  "type": "FeatureCollection",
  "features": [
    {
      "type": "Feature",
      "properties": {
        "norad_id": 44334,
        "name": "EUTELSAT 7C",
        "group": "eutelsat",
        "lat": 0.03345986304620467,
        "lon": -44.04566126646183,
        "alt_km": 35780.469291811336,
        "timestamp": "2025-12-20T14:38:01.630130+00:00",
        "meta_object_name": "EUTELSAT 7C",
        "meta_object_id": "2019-034B",
        "meta_epoch": "2025-12-20T04:42:12.609792",
        "meta_mean_motion": 1.00270738,
        "meta_eccentricity": 0.00030505,
        "meta_inclination": 0.073,
        "meta_ra_of_asc_node": 179.279,
        "meta_arg_of_pericenter": 73.5295,
        "meta_mean_anomaly": 273.7633,
        "meta_ephemeris_type": 0,
        "meta_classification_type": "U",
        "meta_norad_cat_id": 44334,
        "meta_element_set_no": 999,
        "meta_rev_at_epoch": 504,
        "meta_bstar": 0,
        "meta_mean_motion_dot": 7.2e-07,
        "meta_mean_motion_ddot": 0,
        "tle_line1": "1 44334U 19034B   25354.19597928  .00000072  00000+0  00000+0 0  9991",
        "tle_line2": "2 44334   0.0730 179.2790 0003050  73.5295 273.7633  1.00270738  5042"
      },
      "geometry": {
        "type": "Point",
        "coordinates": [
          -44.04566126646183,
          0.03345986304620467
        ]
      }
    },
    {
      "type": "Feature",
      "properties": {
        "norad_id": 44624,
        "name": "EUTELSAT 5 WEST B",
        "group": "eutelsat",
        "lat": -0.05379322419183257,
        "lon": -56.03650563222578,
        "alt_km": 35775.78410600193,
        "timestamp": "2025-12-20T14:38:01.630142+00:00",
        "meta_object_name": "EUTELSAT 5 WEST B",
        "meta_object_id": "2019-067A",
        "meta_epoch": "2025-12-20T04:38:50.432928",
        "meta_mean_motion": 1.00271303,
        "meta_eccentricity": 0.00029972,
        "meta_inclination": 0.0677,
        "meta_ra_of_asc_node": 334.3737,
        "meta_arg_of_pericenter": 294.7797,
        "meta_mean_anomaly": 244.594,
        "meta_ephemeris_type": 0,
        "meta_classification_type": "U",
        "meta_norad_cat_id": 44624,
        "meta_element_set_no": 999,
        "meta_rev_at_epoch": 2264,
        "meta_bstar": 0,
        "meta_mean_motion_dot": -1.8e-07,
        "meta_mean_motion_ddot": 0,
        "tle_line1": "1 44624U 19067A   25354.19363927 -.00000018  00000+0  00000+0 0  9990",
        "tle_line2": "2 44624   0.0677 334.3737 0002997 294.7797 244.5940  1.00271303 22643"
      },
      "geometry": {
        "type": "Point",
        "coordinates": [
          -56.03650563222578,
          -0.05379322419183257
        ]
      }
    },
    {
      "type": "Feature",
      "properties": {
        "norad_id": 45027,
        "name": "EUTELSAT KONNECT",
        "group": "eutelsat",
        "lat": -0.06192597005637934,
        "lon": -43.85385977756067,
        "alt_km": 35781.85187871497,
        "timestamp": "2025-12-20T14:38:01.630153+00:00",
        "meta_object_name": "EUTELSAT KONNECT",
        "meta_object_id": "2020-005B",
        "meta_epoch": "2025-12-20T04:42:20.098080",
        "meta_mean_motion": 1.00269776,
        "meta_eccentricity": 0.00012968,
        "meta_inclination": 0.0717,
        "meta_ra_of_asc_node": 94.868,
        "meta_arg_of_pericenter": 191.8715,
        "meta_mean_anomaly": 240.0807,
        "meta_ephemeris_type": 0,
        "meta_classification_type": "U",
        "meta_norad_cat_id": 45027,
        "meta_element_set_no": 999,
        "meta_rev_at_epoch": 2254,
        "meta_bstar": 0,
        "meta_mean_motion_dot": 7.3e-07,
        "meta_mean_motion_ddot": 0,
        "tle_line1": "1 45027U 20005B   25354.19606595  .00000073  00000+0  00000+0 0  9993",
        "tle_line2": "2 45027   0.0717  94.8680 0001296 191.8715 240.0807  1.00269776 22542"
      },
      "geometry": {
        "type": "Point",
        "coordinates": [
          -43.85385977756067,
          -0.06192597005637934
        ]
      }
    },
    {
      "type": "Feature",
      "properties": {
        "norad_id": 49056,
        "name": "EUTELSAT QUANTUM",
        "group": "eutelsat",
        "lat": -0.01532493231988234,
        "lon": -3.3188061756186795,
        "alt_km": 35782.95793280221,
        "timestamp": "2025-12-20T14:38:01.630165+00:00",
        "meta_object_name": "EUTELSAT QUANTUM",
        "meta_object_id": "2021-069B",
        "meta_epoch": "2025-12-20T04:36:38.793888",
        "meta_mean_motion": 1.00271951,
        "meta_eccentricity": 0.00033302,
        "meta_inclination": 0.0188,
        "meta_ra_of_asc_node": 32.2661,
        "meta_arg_of_pericenter": 246.9131,
        "meta_mean_anomaly": 286.7168,
        "meta_ephemeris_type": 0,
        "meta_classification_type": "U",
        "meta_norad_cat_id": 49056,
        "meta_element_set_no": 999,
        "meta_rev_at_epoch": 1613,
        "meta_bstar": 0,
        "meta_mean_motion_dot": 1.5e-06,
        "meta_mean_motion_ddot": 0,
        "tle_line1": "1 49056U 21069B   25354.19211567  .00000150  00000+0  00000+0 0  9997",
        "tle_line2": "2 49056   0.0188  32.2661 0003330 246.9131 286.7168  1.00271951 16133"
      },
      "geometry": {
        "type": "Point",
        "coordinates": [
          -3.3188061756186795,
          -0.01532493231988234
        ]
      }
    },
    {
      "type": "Feature",
      "properties": {
        "norad_id": 53765,
        "name": "EUTELSAT KONNECT VHTS",
        "group": "eutelsat",
        "lat": -0.051354989996064304,
        "lon": -48.26779337818758,
        "alt_km": 35782.02844457008,
        "timestamp": "2025-12-20T14:38:01.630177+00:00",
        "meta_object_name": "EUTELSAT KONNECT VHTS",
        "meta_object_id": "2022-110A",
        "meta_epoch": "2025-12-20T03:48:38.814048",
        "meta_mean_motion": 1.00276689,
        "meta_eccentricity": 0.00023926,
        "meta_inclination": 0.0642,
        "meta_ra_of_asc_node": 98.8087,
        "meta_arg_of_pericenter": 137.8855,
        "meta_mean_anomaly": 272.2232,
        "meta_ephemeris_type": 0,
        "meta_classification_type": "U",
        "meta_norad_cat_id": 53765,
        "meta_element_set_no": 999,
        "meta_rev_at_epoch": 503,
        "meta_bstar": 0,
        "meta_mean_motion_dot": 4.2e-07,
        "meta_mean_motion_ddot": 0,
        "tle_line1": "1 53765U 22110A   25354.15878257  .00000042  00000+0  00000+0 0  9998",
        "tle_line2": "2 53765   0.0642  98.8087 0002392 137.8855 272.2232  1.00276689  5030"
      },
      "geometry": {
        "type": "Point",
        "coordinates": [
          -48.26779337818758,
          -0.051354989996064304
        ]
      }
    },
    {
      "type": "Feature",
      "properties": {
        "norad_id": 54048,
        "name": "EUTELSAT HOTBIRD 13F",
        "group": "eutelsat",
        "lat": 0.008781355369502338,
        "lon": -38.0854865273345,
        "alt_km": 35778.57403388321,
        "timestamp": "2025-12-20T14:38:01.630188+00:00",
        "meta_object_name": "EUTELSAT HOTBIRD 13F",
        "meta_object_id": "2022-134A",
        "meta_epoch": "2025-12-20T04:43:57.443232",
        "meta_mean_motion": 1.00272198,
        "meta_eccentricity": 0.00023829,
        "meta_inclination": 0.0482,
        "meta_ra_of_asc_node": 295.6006,
        "meta_arg_of_pericenter": 68.8406,
        "meta_mean_anomaly": 168.5765,
        "meta_ephemeris_type": 0,
        "meta_classification_type": "U",
        "meta_norad_cat_id": 54048,
        "meta_element_set_no": 999,
        "meta_rev_at_epoch": 1158,
        "meta_bstar": 0,
        "meta_mean_motion_dot": 1.11e-06,
        "meta_mean_motion_ddot": 0,
        "tle_line1": "1 54048U 22134A   25354.19719263  .00000111  00000+0  00000+0 0  9991",
        "tle_line2": "2 54048   0.0482 295.6006 0002382  68.8406 168.5765  1.00272198 11585"
      },
      "geometry": {
        "type": "Point",
        "coordinates": [
          -38.0854865273345,
          0.008781355369502338
        ]
      }
    },
    {
      "type": "Feature",
      "properties": {
        "norad_id": 54225,
        "name": "EUTELSAT HOTBIRD 13G",
        "group": "eutelsat",
        "lat": 0.020321815595657676,
        "lon": -38.05775118073737,
        "alt_km": 35792.17892784257,
        "timestamp": "2025-12-20T14:38:01.630200+00:00",
        "meta_object_name": "EUTELSAT HOTBIRD 13G",
        "meta_object_id": "2022-146A",
        "meta_epoch": "2025-12-19T18:27:37.056960",
        "meta_mean_motion": 1.0027241,
        "meta_eccentricity": 0.00017892,
        "meta_inclination": 0.0515,
        "meta_ra_of_asc_node": 225.8744,
        "meta_arg_of_pericenter": 308.1908,
        "meta_mean_anomaly": 204.4423,
        "meta_ephemeris_type": 0,
        "meta_classification_type": "U",
        "meta_norad_cat_id": 54225,
        "meta_element_set_no": 999,
        "meta_rev_at_epoch": 566,
        "meta_bstar": 0,
        "meta_mean_motion_dot": 1.12e-06,
        "meta_mean_motion_ddot": 0,
        "tle_line1": "1 54225U 22146A   25353.76917890  .00000112  00000+0  00000+0 0  9990",
        "tle_line2": "2 54225   0.0515 225.8744 0001789 308.1908 204.4423  1.00272410  5660"
      },
      "geometry": {
        "type": "Point",
        "coordinates": [
          -38.05775118073737,
          0.020321815595657676
        ]
      }
    }
  ]
}